JILIN-1                 
1 40961U 15057D   26193.80399634  .00000435  00000+0  66640-4 0  9998
2 40961  97.6518 191.9003 0016996 174.5745 185.5654 14.78199296579398
JILIN-1 03              
1 41914U 17002B   26193.85531848  .00009895  00000+0  23233-3 0  9998
2 41914  97.1945 200.5883 0007946  85.7814 274.4342 15.42194634525817
JILIN-1 04              
1 43022U 17074A   26193.83588610  .00009601  00000+0  21912-3 0  9993
2 43022  97.4875 304.1456 0005260 106.6125 253.5701 15.43091607478222
JILIN-1 05              
1 43023U 17074B   26193.82106031  .00005273  00000+0  16138-3 0  9991
2 43023  97.4880 300.3300 0006361 131.2446 228.9345 15.34262625477935
JILIN-1 06              
1 43024U 17074C   26193.79652029  .00003693  00000+0  11474-3 0  9993
2 43024  97.4805 297.2806 0007939 141.3345 218.8467 15.33979499477767
JILIN-1 07              
1 43159U 18008E   26193.84369823  .00005966  00000+0  17710-3 0  9997
2 43159  97.1765 213.0937 0006977 337.9696  22.1247 15.35140833468937
JILIN-1 08              
1 43160U 18008F   26193.86197450  .00003921  00000+0  12150-3 0  9998
2 43160  97.1801 212.3991 0005596   1.6069 358.5192 15.33994311468882
JILIN-1 09              
1 43943U 19005B   26193.84376104  .00002672  00000+0  12465-3 0  9999
2 43943  97.4747 288.5910 0002530  41.2969 318.8457 15.20729583413047
JILIN-1 10              
1 43946U 19005E   26193.83354367  .00003612  00000+0  14329-3 0  9994
2 43946  97.4798 292.6431 0008341 177.7343 182.3934 15.25991692413228
