{"fetched_at":"2026-07-13T07:48:28.639Z","source":"https://celestrak.org/NORAD/elements/gp.php?NAME=JILIN&FORMAT=JSON","constellation":"jilin-1-early","records":[{"OBJECT_NAME":"JILIN-1","OBJECT_ID":"2015-057D","EPOCH":"2026-07-12T19:17:45.283776","CLASSIFICATION_TYPE":"U","MEAN_MOTION":14.78199296,"ECCENTRICITY":0.0016996,"INCLINATION":97.6518,"RA_OF_ASC_NODE":191.9003,"ARG_OF_PERICENTER":174.5745,"MEAN_ANOMALY":185.5654,"EPHEMERIS_TYPE":0,"NORAD_CAT_ID":40961,"ELEMENT_SET_NO":999,"REV_AT_EPOCH":57939,"BSTAR":0.00006664,"MEAN_MOTION_DOT":0.00000435,"MEAN_MOTION_DDOT":0},{"OBJECT_NAME":"JILIN-1 03","OBJECT_ID":"2017-002B","EPOCH":"2026-07-12T20:31:39.516672","CLASSIFICATION_TYPE":"U","MEAN_MOTION":15.42194634,"ECCENTRICITY":0.0007946,"INCLINATION":97.1945,"RA_OF_ASC_NODE":200.5883,"ARG_OF_PERICENTER":85.7814,"MEAN_ANOMALY":274.4342,"EPHEMERIS_TYPE":0,"NORAD_CAT_ID":41914,"ELEMENT_SET_NO":999,"REV_AT_EPOCH":52581,"BSTAR":0.00023233,"MEAN_MOTION_DOT":0.00009895,"MEAN_MOTION_DDOT":0},{"OBJECT_NAME":"JILIN-1 04","OBJECT_ID":"2017-074A","EPOCH":"2026-07-12T20:03:40.559040","CLASSIFICATION_TYPE":"U","MEAN_MOTION":15.43091607,"ECCENTRICITY":0.000526,"INCLINATION":97.4875,"RA_OF_ASC_NODE":304.1456,"ARG_OF_PERICENTER":106.6125,"MEAN_ANOMALY":253.5701,"EPHEMERIS_TYPE":0,"NORAD_CAT_ID":43022,"ELEMENT_SET_NO":999,"REV_AT_EPOCH":47822,"BSTAR":0.00021912,"MEAN_MOTION_DOT":0.00009601,"MEAN_MOTION_DDOT":0},{"OBJECT_NAME":"JILIN-1 05","OBJECT_ID":"2017-074B","EPOCH":"2026-07-12T19:42:19.610784","CLASSIFICATION_TYPE":"U","MEAN_MOTION":15.34262625,"ECCENTRICITY":0.0006361,"INCLINATION":97.488,"RA_OF_ASC_NODE":300.33,"ARG_OF_PERICENTER":131.2446,"MEAN_ANOMALY":228.9345,"EPHEMERIS_TYPE":0,"NORAD_CAT_ID":43023,"ELEMENT_SET_NO":999,"REV_AT_EPOCH":47793,"BSTAR":0.00016138,"MEAN_MOTION_DOT":0.00005273,"MEAN_MOTION_DDOT":0},{"OBJECT_NAME":"JILIN-1 06","OBJECT_ID":"2017-074C","EPOCH":"2026-07-12T19:06:59.353056","CLASSIFICATION_TYPE":"U","MEAN_MOTION":15.33979499,"ECCENTRICITY":0.0007939,"INCLINATION":97.4805,"RA_OF_ASC_NODE":297.2806,"ARG_OF_PERICENTER":141.3345,"MEAN_ANOMALY":218.8467,"EPHEMERIS_TYPE":0,"NORAD_CAT_ID":43024,"ELEMENT_SET_NO":999,"REV_AT_EPOCH":47776,"BSTAR":0.00011474,"MEAN_MOTION_DOT":0.00003693,"MEAN_MOTION_DDOT":0},{"OBJECT_NAME":"JILIN-1 07","OBJECT_ID":"2018-008E","EPOCH":"2026-07-12T20:14:55.527072","CLASSIFICATION_TYPE":"U","MEAN_MOTION":15.35140833,"ECCENTRICITY":0.0006977,"INCLINATION":97.1765,"RA_OF_ASC_NODE":213.0937,"ARG_OF_PERICENTER":337.9696,"MEAN_ANOMALY":22.1247,"EPHEMERIS_TYPE":0,"NORAD_CAT_ID":43159,"ELEMENT_SET_NO":999,"REV_AT_EPOCH":46893,"BSTAR":0.0001771,"MEAN_MOTION_DOT":0.00005966,"MEAN_MOTION_DDOT":0},{"OBJECT_NAME":"JILIN-1 08","OBJECT_ID":"2018-008F","EPOCH":"2026-07-12T20:41:14.596800","CLASSIFICATION_TYPE":"U","MEAN_MOTION":15.33994311,"ECCENTRICITY":0.0005596,"INCLINATION":97.1801,"RA_OF_ASC_NODE":212.3991,"ARG_OF_PERICENTER":1.6069,"MEAN_ANOMALY":358.5192,"EPHEMERIS_TYPE":0,"NORAD_CAT_ID":43160,"ELEMENT_SET_NO":999,"REV_AT_EPOCH":46888,"BSTAR":0.0001215,"MEAN_MOTION_DOT":0.00003921,"MEAN_MOTION_DDOT":0},{"OBJECT_NAME":"JILIN-1 09","OBJECT_ID":"2019-005B","EPOCH":"2026-07-12T20:15:00.953856","CLASSIFICATION_TYPE":"U","MEAN_MOTION":15.20729583,"ECCENTRICITY":0.000253,"INCLINATION":97.4747,"RA_OF_ASC_NODE":288.591,"ARG_OF_PERICENTER":41.2969,"MEAN_ANOMALY":318.8457,"EPHEMERIS_TYPE":0,"NORAD_CAT_ID":43943,"ELEMENT_SET_NO":999,"REV_AT_EPOCH":41304,"BSTAR":0.00012465,"MEAN_MOTION_DOT":0.00002672,"MEAN_MOTION_DDOT":0},{"OBJECT_NAME":"JILIN-1 10","OBJECT_ID":"2019-005E","EPOCH":"2026-07-12T20:00:18.173088","CLASSIFICATION_TYPE":"U","MEAN_MOTION":15.25991692,"ECCENTRICITY":0.0008341,"INCLINATION":97.4798,"RA_OF_ASC_NODE":292.6431,"ARG_OF_PERICENTER":177.7343,"MEAN_ANOMALY":182.3934,"EPHEMERIS_TYPE":0,"NORAD_CAT_ID":43946,"ELEMENT_SET_NO":999,"REV_AT_EPOCH":41322,"BSTAR":0.00014329,"MEAN_MOTION_DOT":0.00003612,"MEAN_MOTION_DDOT":0}]}
